GLOBAL-15               
1 49470U 21106B   23267.39124099  .00025233  00000+0  61407-3 0  9996
2 49470  42.0067  32.0696 0015462 345.2294  14.8092 15.40297792104070
GAOFEN-3 02             
1 49495U 21109A   23267.91859954  .00000171  00000+0  65254-4 0  9998
2 49495  98.4161 273.9208 0002112  82.1912 277.9518 14.42219479 96717
GLOBAL-12               
1 49772U 21115BA  23267.87030627  .00025720  00000+0  67829-3 0  9992
2 49772  53.2085  61.4197 0011773 266.5984  93.3674 15.38289304102324
GLOBAL-13               
1 49773U 21115BB  23267.71460733  .00028024  00000+0  73148-3 0  9992
2 49773  53.2096  63.3598 0008530 253.3731 106.6338 15.38589902102281
2021-117A               
1 49812U 21117A   23267.89837280  .00024747  00000+0  49427-3 0  9993
2 49812  97.3407 349.9947 0008447 108.2795 251.9375 15.46776877100692
JINZIJING 1 03          
1 49813U 21117B   23267.87023238  .00069101  00000+0  11411-2 0  9996
2 49813  97.3353 348.2346 0007265 112.4303 247.7720 15.51995266100594
GLOBAL-17               
1 49949U 21120A   23267.63219077  .00025714  00000+0  65771-3 0  9993
2 49949  42.0066 115.9070 0020471 225.8254 134.0903 15.38680791101268
GLOBAL-16               
1 49950U 21120B   23267.92971604  .00025588  00000+0  65356-3 0  9996
2 49950  42.0071 113.7912 0021193 233.0218 126.8682 15.38710854101302
XW-3 (CAS-9)            
1 50466U 21131B   23267.88032464  .00000940  00000+0  31836-3 0  9990
2 50466  98.5471 349.1020 0004105 187.0038 173.1092 14.39065070 91696
UMBRA-02                
1 50986U 22002C   23267.75977431  .00031979  00000+0  16976-2 0  9996
2 50986  97.4298 332.5633 0004831 282.8459  77.2234 15.15251531 93813
TEVEL-3                 
1 50988U 22002E   23267.90425103  .00031136  00000+0  10844-2 0  9992
2 50988  97.4236 334.4366 0006136 231.9938 128.0749 15.29596071 93988
TEVEL-8                 
1 50989U 22002F   23267.86220706  .00031877  00000+0  11127-2 0  9997
2 50989  97.4251 334.4644 0006207 231.4062 128.6622 15.29516571 93979
ION SCV-004             
1 50993U 22002K   23267.78406653  .00005652  00000+0  30333-3 0  9993
2 50993  97.4288 329.6985 0007285 243.0375 117.0114 15.15312207 93637
TEVEL-5                 
1 50998U 22002Q   23267.85452405  .00033403  00000+0  11261-2 0  9995
2 50998  97.4230 334.9021 0007297 227.0565 133.0064 15.30631512 94010
TEVEL-6                 
1 50999U 22002R   23267.85315226  .00033853  00000+0  11413-2 0  9993
2 50999  97.4228 334.8929 0007304 226.8919 133.1712 15.30627511 94018
TEVEL-1                 
1 51013U 22002AF  23267.85202877  .00031921  00000+0  11136-2 0  9994
2 51013  97.4227 334.3093 0006085 231.8731 128.1961 15.29535858 93979
GRIZU-263A              
1 51025U 22002AT  23267.69618744  .01008730  43088-3  34479-2 0  9998
2 51025  97.4228 344.8645 0009746 253.6610 106.3591 15.89719377 94566
SANOSAT-1               
1 51031U 22002AZ  23267.74108689  .00074954  00000+0  17491-2 0  9991
2 51031  97.4342 338.8274 0007787 223.6631 136.4000 15.41914996 94194
IRIS-A                  
1 51044U 22002BN  23267.71728200  .00014588  00000+0  65049-3 0  9999
2 51044  97.4249 331.7374 0006504 246.0528 114.0027 15.21490952 93781
FLOCK 4X-28             
1 51045U 22002BP  23267.72345971  .00028789  00000+0  84660-3 0  9999
2 51045  97.4249 336.5866 0007381 205.4966 154.5914 15.35030163 94098
FLOCK 4X-19             
1 51046U 22002BQ  23267.72649438  .00034704  00000+0  80659-3 0  9993
2 51046  97.4265 338.5174 0004537 208.4841 151.6158 15.42252453 94203
KEPLER-19               
1 51051U 22002BV  23267.15060098  .00010537  00000+0  50148-3 0  9993
2 51051  97.4286 330.5722 0006351 254.5063 105.5471 15.19327939 93646
ETV-A1                  
1 51060U 22002CE  23267.93553507  .00007627  00000+0  38948-3 0  9991
2 51060  97.4311 330.7291 0007434 272.6032  87.4351 15.16955831 93705
BRO-5                   
1 51061U 22002CF  23267.85777176  .00006920  00000+0  34447-3 0  9998
2 51061  97.4352 331.5150 0007297 275.0997  84.9404 15.17888518 93730
TEVEL-7                 
1 51062U 22002CG  23267.86166855  .00031587  00000+0  11017-2 0  9990
2 51062  97.4246 334.4346 0006199 230.8392 129.2298 15.29544772 93974
TEVEL-4                 
1 51063U 22002CH  23267.93731380  .00032532  00000+0  11369-2 0  9991
2 51063  97.4243 334.4818 0006222 230.8145 129.2543 15.29474083 93980
TEVEL-2                 
1 51069U 22002CP  23267.90566058  .00030962  00000+0  10781-2 0  9994
2 51069  97.4233 334.4066 0006121 231.6639 128.4052 15.29603758 93984
DELFI-PQ                
1 51074U 22002CU  23267.74892560  .00094412  00000+0  18386-2 0  9991
2 51074  97.4483 342.0375 0007578 246.5899 113.4554 15.47186013 94336
VZLUSAT-2               
1 51085U 22002DF  23267.89302741  .00011381  00000+0  53892-3 0  9992
2 51085  97.4286 331.0636 0011003 263.8245  96.1736 15.19444819 93734
STEAMSAT-2              
1 51099U 22003F   23266.52424660  .03899538  10048-4  22509-2 0  9991
2 51099  44.8997 358.6139 0015779 350.5472   9.5145 16.17674046 95120
L-SAR 01A               
1 51284U 22007A   23267.94584531  .00000005  00000+0  64122-5 0  9994
2 51284  97.8118 273.6630 0001571  93.4401 266.6995 14.88407859 90284
INSPIRESAT-1            
1 51657U 22013B   23267.82543639  .00009242  00000+0  43359-3 0  9995
2 51657  97.5478 278.8489 0010949  33.1812 327.0107 15.19831049 89034
INS-2TD                 
1 51658U 22013C   23267.83657271  .00023579  00000+0  91686-3 0  9990
2 51658  97.5463 280.7224 0009563  33.9154 326.2694 15.25996523 89167
L-SAR 01B               
1 51822U 22018A   23267.91213192  .00000793  00000+0  91443-4 0  9992
2 51822  97.8112 273.5933 0001450  95.0694 265.0688 14.88410985 85515
2022-019D               
1 51827U 22019D   23267.90876339  .00009325  00000+0  49158-3 0  9990
2 51827  97.4663 338.6980 0016124  89.5426 270.7654 15.15680902 86838
2022-019G               
1 51830U 22019G   23267.86858273  .00029296  00000+0  11974-2 0  9999
2 51830  97.4621 341.0784 0013941  86.1398 274.1433 15.24230991 87003
JILIN-1 GAOFEN 03D14    
1 51831U 22019H   23267.92526884  .00013505  00000+0  66166-3 0  9997
2 51831  97.4660 339.7150 0019673  86.6636 273.6848 15.18100617 86902
2022-019J               
1 51832U 22019J   23267.87826593  .00004192  00000+0  24272-3 0  9996
2 51832  97.4662 337.7789 0011593  97.3565 262.8984 15.12703712 86779
JILIN-1 GAOFEN 03D16    
1 51834U 22019L   23267.92007778  .00013517  00000+0  66312-3 0  9992
2 51834  97.4664 339.7481 0016615  96.3659 263.9467 15.18102702 86908
JILIN-1 GAOFEN 03D11    
1 51835U 22019M   23267.91444412  .00012910  00000+0  63474-3 0  9994
2 51835  97.4663 339.7550 0017370  90.0348 270.2876 15.18026215 86909
JILIN-1 GAOFEN 03D17    
1 51838U 22019Q   23267.88172288  .00014465  00000+0  70443-3 0  9993
2 51838  97.4658 339.8932 0014455  93.3982 266.8906 15.18373380 86916
JILIN-1 GAOFEN 03D15    
1 51839U 22019R   23267.89905201  .00013450  00000+0  66198-3 0  9999
2 51839  97.4643 339.6403 0011866  84.7035 275.5552 15.18050858 86903
JILIN-1 GAOFEN 03D10    
1 51840U 22019S   23267.88356562  .00013986  00000+0  68652-3 0  9991
2 51840  97.4658 339.7510 0014773  85.7823 274.5099 15.18102561 86901
JILIN-1 GAOFEN 03D12    
1 51841U 22019T   23267.87694235  .00013827  00000+0  67950-3 0  9997
2 51841  97.4648 339.6883 0015074  85.0918 275.2037 15.18059162 86904
JILIN-1 GAOFEN 03D18    
1 51844U 22019W   23267.93236319  .00014300  00000+0  69973-3 0  9996
2 51844  97.4640 339.5658 0021195  88.6648 271.7014 15.18101419 86806
2022-023F               
1 51951U 22023F   23267.88771932  .00009865  00000+0  45829-3 0  9993
2 51951  63.4734  57.2165 0070582 343.3117  16.5673 15.18302947 86440
NOOR-2                  
1 51954U 22024A   23267.92081301  .00042539  00000+0  10313-2 0  9990
2 51954  58.2810   9.5659 0017015  27.9711 332.2268 15.40617527 86441
ORESAT0                 
1 52017U 22026K   23267.92941973  .00027586  00000+0  97929-3 0  9997
2 52017  97.5115 270.8964 0023152  92.8689 267.5200 15.28756039 84769
CZ-4C R/B               
1 52085U 22027B   23267.91528633 -.00000066  00000+0  33432-4 0  9991
2 52085  63.3988 189.7744 0145437  30.1854 330.7462 13.65358104 76008
MERIDIAN 10             
1 52145U 22030A   23266.99787473  .00000060  00000+0  00000+0 0  9991
2 52145  62.6604 249.0979 6978203 273.2564  15.9277  2.00624140 11021
OMNI-L1                 
1 52157U 22033A   23267.71275439  .00004895  00000+0  62610-3 0  9991
2 52157  97.9145 348.9971 0011870 303.9208  56.0876 14.81776985 80017
ENMAP                   
1 52159U 22033C   23267.87943657  .00000984  00000+0  15370-3 0  9990
2 52159  97.9789 348.4419 0003859   2.5404 357.5824 14.75003100 79793
ALFACRUX                
1 52160U 22033D   23267.74909992  .00052848  00000+0  11999-2 0  9990
2 52160  97.3483 349.9926 0006494 178.8735 181.2528 15.42847054 82641
ARCSAT-1                
1 52161U 22033E   23267.18862870  .00015154  00000+0  55801-3 0  9992
2 52161  97.3497 345.2734 0008371 181.8660 178.2549 15.27903655 82282
ION SCV-005             
1 52163U 22033G   23267.85985923  .00236425  20380-4  87911-3 0  9994
2 52163  97.3477   8.0290 0095057 177.3051 182.8750 15.81015686 83817
MP42                    
1 52169U 22033N   23267.78466133  .00025222  00000+0  75114-3 0  9994
2 52169  97.3493 348.3538 0009666 164.0121 196.1429 15.34636996 82549
SHAKUNTALA              
1 52173U 22033S   23267.80236137  .00085834  00000+0  13541-2 0  9991
2 52173  97.3539 353.4674 0007317 160.8827 199.2702 15.53204793 82861
BRO-7                   
1 52174U 22033T   23267.88195677  .00014381  00000+0  48360-3 0  9990
2 52174  97.3502 347.7544 0012062 155.9278 204.2529 15.30845425 82516
BDSAT                   
1 52175U 22033U   23267.78425491  .00058743  00000+0  11771-2 0  9995
2 52175  97.3491 351.7532 0008581 149.0491 211.1266 15.46494663 82761
